[{"OBJECT_NAME":"GNOMES-3","OBJECT_ID":"2022-033B","EPOCH":"2026-03-09T16:59:59.477856","MEAN_MOTION":14.84669331,"ECCENTRICITY":0.00095992,"INCLINATION":97.8285,"RA_OF_ASC_NODE":146.8032,"ARG_OF_PERICENTER":290.7124,"MEAN_ANOMALY":69.3062,"EPHEMERIS_TYPE":0,"CLASSIFICATION_TYPE":"U","NORAD_CAT_ID":52158,"ELEMENT_SET_NO":999,"REV_AT_EPOCH":21257,"BSTAR":0.00036144772,"MEAN_MOTION_DOT":3.007e-5,"MEAN_MOTION_DDOT":0},{"OBJECT_NAME":"CAS500-3","OBJECT_ID":"2025-274F","EPOCH":"2026-03-09T17:15:29.131488","MEAN_MOTION":14.88373235,"ECCENTRICITY":0.00084602,"INCLINATION":97.7401,"RA_OF_ASC_NODE":359.0468,"ARG_OF_PERICENTER":99.396,"MEAN_ANOMALY":260.8214,"EPHEMERIS_TYPE":0,"CLASSIFICATION_TYPE":"U","NORAD_CAT_ID":66655,"ELEMENT_SET_NO":999,"REV_AT_EPOCH":1535,"BSTAR":0.00019463023,"MEAN_MOTION_DOT":1.75e-5,"MEAN_MOTION_DDOT":0}]
